OSCAR 31                
1 19420U 88074B   26061.96251498  .00000086  00000+0  13223-3 0  9999
2 19420  90.0424  20.8771 0094951  12.8837  57.3321 13.42596575837274
