[{"OBJECT_NAME":"OSCAR 31","OBJECT_ID":"1988-074B","EPOCH":"2026-03-02T23:06:01.294272","MEAN_MOTION":13.42596575,"ECCENTRICITY":0.0094951,"INCLINATION":90.0424,"RA_OF_ASC_NODE":20.8771,"ARG_OF_PERICENTER":12.8837,"MEAN_ANOMALY":57.3321,"EPHEMERIS_TYPE":0,"CLASSIFICATION_TYPE":"U","NORAD_CAT_ID":19420,"ELEMENT_SET_NO":999,"REV_AT_EPOCH":83727,"BSTAR":0.00013223,"MEAN_MOTION_DOT":8.6e-7,"MEAN_MOTION_DDOT":0}]
